[{"OBJECT_NAME":"FLOCK 4G-18","OBJECT_ID":"2025-009BZ","EPOCH":"2026-03-09T04:35:14.656704","MEAN_MOTION":15.27241676,"ECCENTRICITY":0.00041001,"INCLINATION":97.4054,"RA_OF_ASC_NODE":150.5008,"ARG_OF_PERICENTER":335.7331,"MEAN_ANOMALY":24.3715,"EPHEMERIS_TYPE":0,"CLASSIFICATION_TYPE":"U","NORAD_CAT_ID":62680,"ELEMENT_SET_NO":999,"REV_AT_EPOCH":12126,"BSTAR":0.0004431856,"MEAN_MOTION_DOT":0.00011766,"MEAN_MOTION_DDOT":0},{"OBJECT_NAME":"STARLINK-35960","OBJECT_ID":"2025-265R","EPOCH":"2026-03-09T22:15:31.870080","MEAN_MOTION":15.2760493,"ECCENTRICITY":0.00010442,"INCLINATION":43.0004,"RA_OF_ASC_NODE":276.261,"ARG_OF_PERICENTER":312.8157,"MEAN_ANOMALY":47.2607,"EPHEMERIS_TYPE":0,"CLASSIFICATION_TYPE":"U","NORAD_CAT_ID":66531,"ELEMENT_SET_NO":999,"REV_AT_EPOCH":1715,"BSTAR":0.0011443107,"MEAN_MOTION_DOT":0.00031385,"MEAN_MOTION_DDOT":0}]
